{"type":"FeatureCollection","features":[{"type":"Feature","geometry":{"type":"LineString","coordinates":[[145.11,43.944],[144.7027734,43.5355121]]},"properties":{"no":"101","band":"標津断層帯","fault":null,"seg":null,"mjma":7.7,"mw":7.1,"len":56,"width":18,"area":1008,"top":3,"strike":216,"dip":45,"rake":90,"slip":1.7,"chained":null}},{"type":"Feature","geometry":{"type":"LineString","coordinates":[[143.298,42.544],[143.374614,42.8996184]]},"properties":{"no":"201","band":"十勝平野断層帯","fault":"主部","seg":"（途別川区間）","mjma":8,"mw":7.5,"len":40,"width":24,"area":960,"top":4,"strike":9,"dip":45,"rake":90,"slip":3.6,"chained":null}},{"type":"Feature","geometry":{"type":"LineString","coordinates":[[143.374614,42.8996184],[143.4594274,43.2907699]]},"properties":{"no":"201","band":"十勝平野断層帯","fault":"主部","seg":"（士幌川区間）","mjma":null,"mw":null,"len":44,"width":24,"area":1056,"top":4,"strike":9,"dip":45,"rake":90,"slip":null,"chained":true}},{"type":"Feature","geometry":{"type":"LineString","coordinates":[[143.354,42.306],[143.1836163,42.5241706]]},"properties":{"no":"202","band":"十勝平野断層帯","fault":"光地園断層","seg":null,"mjma":7.2,"mw":6.7,"len":28,"width":18,"area":504,"top":3,"strike":330,"dip":45,"rake":90,"slip":0.9,"chained":null}},{"type":"Feature","geometry":{"type":"LineString","coordinates":[[142.421,43.443],[142.3243075,43.2010617]]},"properties":{"no":"301","band":"富良野断層帯","fault":"西部","seg":null,"mjma":7.2,"mw":6.7,"len":28,"width":18,"area":504,"top":2,"strike":196.3,"dip":45,"rake":90,"slip":0.9,"chained":null}},{"type":"Feature","geometry":{"type":"LineString","coordinates":[[142.416,43.133],[142.4995858,43.3775136]]},"properties":{"no":"302","band":"富良野断層帯","fault":"東部","seg":null,"mjma":7.2,"mw":6.7,"len":28,"width":18,"area":504,"top":2,"strike":14,"dip":50,"rake":90,"slip":0.8,"chained":null}},{"type":"Feature","geometry":{"type":"LineString","coordinates":[[141.878,43.891],[141.7587929,43.6162581]]},"properties":{"no":"401","band":"増毛山地東縁断層帯・沼田-砂川付近の断層帯","fault":"増毛山地東縁断層帯","seg":"（北側）","mjma":7.8,"mw":7.2,"len":32,"width":18,"area":576,"top":3,"strike":197.5,"dip":45,"rake":90,"slip":1.9,"chained":null}},{"type":"Feature","geometry":{"type":"LineString","coordinates":[[141.758,43.616],[141.6393324,43.3412454]]},"properties":{"no":"401","band":"増毛山地東縁断層帯・沼田-砂川付近の断層帯","fault":"増毛山地東縁断層帯","seg":"（南側）","mjma":null,"mw":null,"len":32,"width":18,"area":576,"top":3,"strike":197.5,"dip":45,"rake":90,"slip":null,"chained":null}},{"type":"Feature","geometry":{"type":"LineString","coordinates":[[141.954,43.491],[141.954,43.8510171]]},"properties":{"no":"402","band":"増毛山地東縁断層帯・沼田-砂川付近の断層帯","fault":"沼田-砂川付近の断層","seg":null,"mjma":7.5,"mw":6.9,"len":40,"width":18,"area":720,"top":3,"strike":0,"dip":45,"rake":90,"slip":1.3,"chained":null}},{"type":"Feature","geometry":{"type":"LineString","coordinates":[[141.539,43.456],[141.539,43.2579797]]},"properties":{"no":"501","band":"当別断層","fault":null,"seg":null,"mjma":7,"mw":6.5,"len":22,"width":18,"area":396,"top":3,"strike":180,"dip":40,"rake":90,"slip":0.7,"chained":null}},{"type":"Feature","geometry":{"type":"LineString","coordinates":[[141.806,42.968],[141.9312903,43.3347544]]},"properties":{"no":"601","band":"石狩低地東縁断層帯","fault":"主部","seg":"（北側）","mjma":8,"mw":7.3,"len":42,"width":24,"area":1632,"top":7,"strike":14,"dip":45,"rake":90,"slip":2.7,"chained":null}},{"type":"Feature","geometry":{"type":"LineString","coordinates":[[141.9312903,43.3347544],[142.0193362,43.1097568]]},"properties":{"no":"601","band":"石狩低地東縁断層帯","fault":"主部","seg":"（南側）","mjma":null,"mw":null,"len":26,"width":24,"area":null,"top":7,"strike":164,"dip":135,"rake":90,"slip":null,"chained":true}},{"type":"Feature","geometry":{"type":"LineString","coordinates":[[141.941,42.7],[141.8526278,42.90601]]},"properties":{"no":"602","band":"石狩低地東縁断層帯","fault":"南部","seg":null,"mjma":7.1,"mw":6.6,"len":24,"width":18,"area":432,"top":7,"strike":342.5,"dip":30,"rake":90,"slip":0.8,"chained":null}},{"type":"Feature","geometry":{"type":"LineString","coordinates":[[140.24,42.754],[140.311061,42.4524636]]},"properties":{"no":"701","band":"黒松内低地断層帯","fault":null,"seg":null,"mjma":7.3,"mw":6.8,"len":34,"width":18,"area":612,"top":2,"strike":170.1,"dip":45,"rake":90,"slip":1.1,"chained":null}},{"type":"Feature","geometry":{"type":"LineString","coordinates":[[140.63,41.943],[140.5913862,41.7107017]]},"properties":{"no":"801","band":"函館平野西縁断層帯","fault":null,"seg":null,"mjma":7.1,"mw":6.6,"len":26,"width":18,"area":468,"top":2,"strike":187.1,"dip":45,"rake":90,"slip":0.8,"chained":null}},{"type":"Feature","geometry":{"type":"LineString","coordinates":[[141.899,44.856],[141.6801159,45.2202408]]},"properties":{"no":"9901","band":"サロベツ断層帯","fault":null,"seg":null,"mjma":7.6,"mw":7,"len":44,"width":18,"area":792,"top":7,"strike":337,"dip":30,"rake":90,"slip":1.5,"chained":null}},{"type":"Feature","geometry":{"type":"LineString","coordinates":[[140.611,40.99],[140.6981155,40.7095398]]},"properties":{"no":"901","band":"青森湾西岸断層帯","fault":null,"seg":null,"mjma":7.3,"mw":6.8,"len":32,"width":18,"area":576,"top":3,"strike":166.7,"dip":60,"rake":90,"slip":1.1,"chained":null}},{"type":"Feature","geometry":{"type":"LineString","coordinates":[[140.603,40.701],[140.5271967,40.8525008]]},"properties":{"no":"1001","band":"津軽山地西縁断層帯","fault":"北部","seg":null,"mjma":6.8,"mw":6.4,"len":18,"width":18,"area":324,"top":3,"strike":339.2,"dip":45,"rake":90,"slip":0.5,"chained":null}},{"type":"Feature","geometry":{"type":"LineString","coordinates":[[140.655,40.559],[140.6881676,40.7736431]]},"properties":{"no":"1002","band":"津軽山地西縁断層帯","fault":"南部","seg":null,"mjma":7.1,"mw":6.6,"len":24,"width":18,"area":432,"top":3,"strike":6.7,"dip":45,"rake":90,"slip":0.8,"chained":null}},{"type":"Feature","geometry":{"type":"LineString","coordinates":[[141.242,40.499],[141.4131135,40.0870606]]},"properties":{"no":"1101","band":"折爪断層","fault":null,"seg":null,"mjma":7.6,"mw":7,"len":48,"width":18,"area":864,"top":2,"strike":162.3,"dip":45,"rake":90,"slip":1.6,"chained":null}},{"type":"Feature","geometry":{"type":"LineString","coordinates":[[139.999,40.078],[140.0348649,40.2923844]]},"properties":{"no":"1201","band":"能代断層帯","fault":null,"seg":null,"mjma":7.1,"mw":6.6,"len":24,"width":18,"area":432,"top":3,"strike":7.3,"dip":45,"rake":90,"slip":0.7,"chained":null}},{"type":"Feature","geometry":{"type":"LineString","coordinates":[[141.052,39.636],[141.03125,39.2941109]]},"properties":{"no":"1301","band":"北上低地西縁断層帯","fault":null,"seg":"（北側）","mjma":7.8,"mw":7.2,"len":38,"width":18,"area":684,"top":3,"strike":182.7,"dip":35,"rake":90,"slip":2.1,"chained":null}},{"type":"Feature","geometry":{"type":"LineString","coordinates":[[141.031,39.294],[141.0168496,39.0600647]]},"properties":{"no":"1301","band":"北上低地西縁断層帯","fault":null,"seg":"（南側）","mjma":null,"mw":null,"len":26,"width":18,"area":468,"top":3,"strike":182.7,"dip":35,"rake":90,"slip":null,"chained":null}},{"type":"Feature","geometry":{"type":"LineString","coordinates":[[140.928,39.809],[140.8926647,39.6491932]]},"properties":{"no":"1401","band":"雫石盆地西縁－真昼山地東縁断層帯","fault":"雫石盆地西縁断層帯","seg":null,"mjma":6.9,"mw":6.4,"len":18,"width":18,"area":324,"top":2,"strike":189.7,"dip":45,"rake":90,"slip":0.6,"chained":null}},{"type":"Feature","geometry":{"type":"LineString","coordinates":[[140.799,39.619],[140.6770517,39.4447962]]},"properties":{"no":"1402","band":"雫石盆地西縁－真昼山地東縁断層帯","fault":"真昼山地東縁断層帯北部","seg":null,"mjma":7,"mw":6.6,"len":22,"width":18,"area":396,"top":3,"strike":208.5,"dip":40,"rake":90,"slip":0.7,"chained":null}},{"type":"Feature","geometry":{"type":"LineString","coordinates":[[140.662,39.437],[140.6459965,39.2753471]]},"properties":{"no":"1403","band":"雫石盆地西縁－真昼山地東縁断層帯","fault":"真昼山地東縁断層帯南部","seg":null,"mjma":6.9,"mw":6.4,"len":18,"width":18,"area":324,"top":3,"strike":184.4,"dip":45,"rake":90,"slip":0.6,"chained":null}},{"type":"Feature","geometry":{"type":"LineString","coordinates":[[140.638,39.367],[140.7085721,39.6131964]]},"properties":{"no":"1501","band":"横手盆地東縁断層帯","fault":"北部","seg":null,"mjma":7.2,"mw":6.7,"len":28,"width":18,"area":504,"top":3,"strike":12.5,"dip":25,"rake":90,"slip":0.9,"chained":null}},{"type":"Feature","geometry":{"type":"LineString","coordinates":[[140.619,39.105],[140.6008541,39.3928902]]},"properties":{"no":"1502","band":"横手盆地東縁断層帯","fault":"南部","seg":null,"mjma":7.3,"mw":6.8,"len":32,"width":18,"area":576,"top":3,"strike":357.2,"dip":45,"rake":90,"slip":1,"chained":null}},{"type":"Feature","geometry":{"type":"LineString","coordinates":[[140.052,39.391],[140.052,39.6792215]]},"properties":{"no":"1601","band":"北由利断層","fault":null,"seg":null,"mjma":7.3,"mw":6.8,"len":32,"width":18,"area":576,"top":3,"strike":0,"dip":45,"rake":90,"slip":1,"chained":null}},{"type":"Feature","geometry":{"type":"LineString","coordinates":[[140.331,38.62],[140.4237076,38.8236327]]},"properties":{"no":"1701","band":"新庄盆地断層帯","fault":null,"seg":null,"mjma":7.1,"mw":6.6,"len":24,"width":18,"area":432,"top":3,"strike":19.6,"dip":45,"rake":90,"slip":0.8,"chained":null}},{"type":"Feature","geometry":{"type":"LineString","coordinates":[[140.332,38.676],[140.2373162,38.4161771]]},"properties":{"no":"1801","band":"山形盆地断層帯","fault":"北部","seg":null,"mjma":7.3,"mw":6.8,"len":30,"width":18,"area":540,"top":4,"strike":196,"dip":45,"rake":90,"slip":1,"chained":null}},{"type":"Feature","geometry":{"type":"LineString","coordinates":[[140.236,38.409],[140.2105437,38.1214151]]},"properties":{"no":"1802","band":"山形盆地断層帯","fault":"南部","seg":null,"mjma":7.3,"mw":6.8,"len":32,"width":18,"area":576,"top":4,"strike":184,"dip":45,"rake":90,"slip":1.1,"chained":null}},{"type":"Feature","geometry":{"type":"LineString","coordinates":[[139.985,38.726],[139.948728,39.0851996]]},"properties":{"no":"1901","band":"庄内平野東縁断層帯","fault":null,"seg":null,"mjma":7.5,"mw":6.9,"len":40,"width":18,"area":720,"top":3,"strike":355.5,"dip":45,"rake":90,"slip":1.3,"chained":null}},{"type":"Feature","geometry":{"type":"LineString","coordinates":[[141.027,38.404],[140.649829,38.1699232]]},"properties":{"no":"2001","band":"長町－利府線断層帯","fault":null,"seg":null,"mjma":7.5,"mw":6.9,"len":42,"width":18,"area":756,"top":3,"strike":231.9,"dip":40,"rake":90,"slip":1.3,"chained":null}},{"type":"Feature","geometry":{"type":"LineString","coordinates":[[140.679,38.143],[140.4341717,37.8391478]]},"properties":{"no":"2101","band":"福島盆地西縁断層帯","fault":null,"seg":"（北側）","mjma":7.8,"mw":7.1,"len":40,"width":18,"area":720,"top":2,"strike":212.6,"dip":45,"rake":90,"slip":1.9,"chained":null}},{"type":"Feature","geometry":{"type":"LineString","coordinates":[[140.433,37.839],[140.3108358,37.6871324]]},"properties":{"no":"2101","band":"福島盆地西縁断層帯","fault":null,"seg":"（南側）","mjma":null,"mw":null,"len":20,"width":18,"area":360,"top":2,"strike":212.6,"dip":45,"rake":90,"slip":null,"chained":null}},{"type":"Feature","geometry":{"type":"LineString","coordinates":[[140.13,38.323],[140.0584263,37.8398054]]},"properties":{"no":"2201","band":"長井盆地西縁断層帯","fault":null,"seg":null,"mjma":7.7,"mw":7.1,"len":54,"width":18,"area":972,"top":2,"strike":186.7,"dip":45,"rake":90,"slip":1.7,"chained":null}},{"type":"Feature","geometry":{"type":"LineString","coordinates":[[140.901,37.658],[140.8468435,38.0339555]]},"properties":{"no":"2301","band":"双葉断層","fault":null,"seg":null,"mjma":7.5,"mw":6.9,"len":42,"width":18,"area":756,"top":2,"strike":353.5,"dip":90,"rake":0,"slip":1.3,"chained":null}},{"type":"Feature","geometry":{"type":"LineString","coordinates":[[139.847,37.729],[139.7589858,37.4122974]]},"properties":{"no":"2401","band":"会津盆地西縁・東縁断層帯","fault":"会津盆地西縁断層帯","seg":null,"mjma":7.4,"mw":6.8,"len":36,"width":18,"area":648,"top":2,"strike":192.5,"dip":45,"rake":90,"slip":1.1,"chained":null}},{"type":"Feature","geometry":{"type":"LineString","coordinates":[[139.854,37.209],[139.9727644,37.6494402]]},"properties":{"no":"2402","band":"会津盆地西縁・東縁断層帯","fault":"会津盆地東縁断層帯","seg":null,"mjma":7.7,"mw":7,"len":50,"width":18,"area":900,"top":2,"strike":12.1,"dip":45,"rake":90,"slip":1.7,"chained":null}},{"type":"Feature","geometry":{"type":"LineString","coordinates":[[140.804,40.075],[140.8648392,40.2489656]]},"properties":{"no":"10101","band":"花輪東断層帯","fault":null,"seg":null,"mjma":7,"mw":6.5,"len":20,"width":20,"area":400,"top":3,"strike":15,"dip":45,"rake":90,"slip":0.6,"chained":null}},{"type":"Feature","geometry":{"type":"LineString","coordinates":[[139.438,38.149],[139.3471946,38.003586]]},"properties":{"no":"2501","band":"櫛形山脈断層帯","fault":null,"seg":null,"mjma":6.8,"mw":6.4,"len":18,"width":18,"area":324,"top":3,"strike":206.3,"dip":45,"rake":90,"slip":0.5,"chained":null}},{"type":"Feature","geometry":{"type":"LineString","coordinates":[[139.3,37.936],[139.1741707,37.6655325]]},"properties":{"no":"2601","band":"月岡断層帯","fault":null,"seg":null,"mjma":7.3,"mw":6.8,"len":32,"width":18,"area":576,"top":3,"strike":200.3,"dip":55,"rake":90,"slip":1,"chained":null}},{"type":"Feature","geometry":{"type":"LineString","coordinates":[[138.819,38.053],[138.7952373,37.8375953]]},"properties":{"no":"2701","band":"長岡平野西縁断層帯","fault":null,"seg":"（弥彦区間北側）","mjma":8,"mw":7.5,"len":24,"width":24,"area":576,"top":6,"strike":185,"dip":55,"rake":90,"slip":3.3,"chained":null}},{"type":"Feature","geometry":{"type":"LineString","coordinates":[[138.7952373,37.8375953],[138.7715433,37.6221827]]},"properties":{"no":"2701","band":"長岡平野西縁断層帯","fault":null,"seg":"（弥彦区間南側）","mjma":null,"mw":null,"len":24,"width":24,"area":576,"top":6,"strike":185,"dip":55,"rake":90,"slip":null,"chained":true}},{"type":"Feature","geometry":{"type":"LineString","coordinates":[[138.771,37.622],[138.7513023,37.4424838]]},"properties":{"no":"2701","band":"長岡平野西縁断層帯","fault":null,"seg":"（鳥越区間）","mjma":null,"mw":null,"len":20,"width":24,"area":480,"top":6,"strike":185,"dip":55,"rake":90,"slip":null,"chained":null}},{"type":"Feature","geometry":{"type":"LineString","coordinates":[[138.752,37.442],[138.736272,37.2983834]]},"properties":{"no":"2701","band":"長岡平野西縁断層帯","fault":null,"seg":"（片貝区間）","mjma":null,"mw":null,"len":16,"width":24,"area":384,"top":6,"strike":185,"dip":55,"rake":90,"slip":null,"chained":null}},{"type":"Feature","geometry":{"type":"LineString","coordinates":[[139.828,35.066],[140.1122992,35.0832386]]},"properties":{"no":"2901","band":"鴨川低地断層帯","fault":null,"seg":null,"mjma":7.2,"mw":6.7,"len":26,"width":18,"area":468,"top":2,"strike":85.7,"dip":90,"rake":90,"slip":0.9,"chained":null}},{"type":"Feature","geometry":{"type":"LineString","coordinates":[[139.898,37.168],[139.8101593,36.814521]]},"properties":{"no":"3001","band":"関谷断層","fault":null,"seg":null,"mjma":7.5,"mw":6.9,"len":40,"width":18,"area":720,"top":2,"strike":191.3,"dip":30,"rake":90,"slip":1.3,"chained":null}},{"type":"Feature","geometry":{"type":"LineString","coordinates":[[138.833,36.361],[139.0809302,36.2400646]]},"properties":{"no":"3101","band":"関東平野北西縁断層帯","fault":"主部","seg":"（高崎区間）","mjma":8,"mw":7.4,"len":26,"width":20,"area":520,"top":5,"strike":121,"dip":60,"rake":90,"slip":2.8,"chained":null}},{"type":"Feature","geometry":{"type":"LineString","coordinates":[[139.082,36.24],[139.4435464,36.0630732]]},"properties":{"no":"3101","band":"関東平野北西縁断層帯","fault":"主部","seg":"（深谷区間）","mjma":null,"mw":null,"len":38,"width":20,"area":760,"top":5,"strike":121,"dip":60,"rake":90,"slip":null,"chained":null}},{"type":"Feature","geometry":{"type":"LineString","coordinates":[[139.445,36.064],[139.6160798,35.9803276]]},"properties":{"no":"3101","band":"関東平野北西縁断層帯","fault":"主部","seg":"（綾瀬川区間）","mjma":null,"mw":null,"len":18,"width":20,"area":360,"top":5,"strike":121,"dip":60,"rake":90,"slip":null,"chained":null}},{"type":"Feature","geometry":{"type":"LineString","coordinates":[[139.221,36.131],[138.9985854,36.2504863]]},"properties":{"no":"3102","band":"関東平野北西縁断層帯","fault":"平井－櫛挽断層帯","seg":null,"mjma":7.1,"mw":6.6,"len":24,"width":18,"area":432,"top":2,"strike":303.6,"dip":90,"rake":0,"slip":0.8,"chained":null}},{"type":"Feature","geometry":{"type":"LineString","coordinates":[[139.454,35.663],[139.1872979,35.879006]]},"properties":{"no":"3401","band":"立川断層帯","fault":null,"seg":null,"mjma":7.4,"mw":6.8,"len":34,"width":18,"area":612,"top":2,"strike":314.9,"dip":90,"rake":90,"slip":1.1,"chained":null}},{"type":"Feature","geometry":{"type":"LineString","coordinates":[[139.307,35.363],[139.2711331,35.5591059]]},"properties":{"no":"3501","band":"伊勢原断層","fault":null,"seg":null,"mjma":7,"mw":6.6,"len":22,"width":18,"area":396,"top":1,"strike":351.5,"dip":60,"rake":90,"slip":0.7,"chained":null}},{"type":"Feature","geometry":{"type":"LineString","coordinates":[[139.151,35.357],[138.9838848,35.3736907]]},"properties":{"no":"3601","band":"神縄・国府津-松田断層帯","fault":null,"seg":"（神縄断層）","mjma":7.5,"mw":6.9,"len":15.3,"width":10,"area":153,"top":3,"strike":277,"dip":75,"rake":null,"slip":null,"chained":null}},{"type":"Feature","geometry":{"type":"LineString","coordinates":[[139.238,35.297],[139.1710952,35.3639404]]},"properties":{"no":"3601","band":"神縄・国府津-松田断層帯","fault":null,"seg":"（国府津-松田断層）","mjma":null,"mw":null,"len":9.6,"width":13,"area":124.8,"top":3,"strike":320.7,"dip":50,"rake":null,"slip":null,"chained":null}},{"type":"Feature","geometry":{"type":"LineString","coordinates":[[139.374,35.078],[139.2406604,35.2943473]]},"properties":{"no":"3601","band":"神縄・国府津-松田断層帯","fault":null,"seg":"（海域部分）","mjma":null,"mw":null,"len":26.9,"width":13,"area":349.7,"top":3,"strike":333.2,"dip":50,"rake":null,"slip":null,"chained":null}},{"type":"Feature","geometry":{"type":"LineString","coordinates":[[139.788,35.198],[139.5213166,35.3238947]]},"properties":{"no":"3701","band":"三浦半島断層群","fault":"主部 衣笠・北武断層帯","seg":null,"mjma":7.2,"mw":6.7,"len":28,"width":18,"area":504,"top":3,"strike":300,"dip":45,"rake":180,"slip":0.9,"chained":null}},{"type":"Feature","geometry":{"type":"LineString","coordinates":[[139.758,35.181],[139.5676358,35.2709854]]},"properties":{"no":"3702","band":"三浦半島断層群","fault":"主部 武山断層帯","seg":null,"mjma":7,"mw":6.5,"len":20,"width":18,"area":360,"top":3,"strike":300,"dip":45,"rake":180,"slip":0.6,"chained":null}},{"type":"Feature","geometry":{"type":"LineString","coordinates":[[139.75,35.117],[139.5597853,35.2069867]]},"properties":{"no":"3703","band":"三浦半島断層群","fault":"南部","seg":null,"mjma":7,"mw":6.5,"len":20,"width":12,"area":240,"top":3,"strike":300,"dip":90,"rake":180,"slip":1.1,"chained":null}},{"type":"Feature","geometry":{"type":"LineString","coordinates":[[138.945,34.899],[139.0379723,35.214361]]},"properties":{"no":"3801","band":"北伊豆断層帯","fault":null,"seg":null,"mjma":7.3,"mw":6.8,"len":36,"width":10,"area":360,"top":3,"strike":13.6,"dip":90,"rake":0,"slip":1.8,"chained":null}},{"type":"Feature","geometry":{"type":"LineString","coordinates":[[138.725,37.267],[138.531703,37.0026014]]},"properties":{"no":"3901","band":"十日町断層帯","fault":"西部","seg":null,"mjma":7.4,"mw":6.8,"len":34,"width":18,"area":612,"top":5,"strike":210.4,"dip":45,"rake":90,"slip":1.1,"chained":null}},{"type":"Feature","geometry":{"type":"LineString","coordinates":[[138.749,37.028],[138.840621,37.1925975]]},"properties":{"no":"3902","band":"十日町断層帯","fault":"東部","seg":null,"mjma":7,"mw":6.5,"len":20,"width":20,"area":400,"top":5,"strike":24,"dip":45,"rake":90,"slip":0.6,"chained":null}},{"type":"Feature","geometry":{"type":"LineString","coordinates":[[138.455,37],[138.0572561,36.5641507]]},"properties":{"no":"4001","band":"長野盆地西縁断層帯","fault":null,"seg":null,"mjma":7.8,"mw":7.1,"len":60,"width":18,"area":1080,"top":4,"strike":216.4,"dip":45,"rake":90,"slip":1.9,"chained":null}},{"type":"Feature","geometry":{"type":"LineString","coordinates":[[137.877,36.536],[137.8922413,36.7699731]]},"properties":{"no":"4101","band":"糸魚川ー静岡構造線","fault":"北部・中部","seg":"（北部１）","mjma":8.1,"mw":7.4,"len":26,"width":20,"area":520,"top":2,"strike":3,"dip":40,"rake":90,"slip":2.5,"chained":null}},{"type":"Feature","geometry":{"type":"LineString","coordinates":[[137.877,36.536],[137.9873674,36.224093]]},"properties":{"no":"4101","band":"糸魚川ー静岡構造線","fault":"北部・中部","seg":"（北部２）","mjma":null,"mw":null,"len":36,"width":20,"area":720,"top":2,"strike":164,"dip":140,"rake":90,"slip":null,"chained":null}},{"type":"Feature","geometry":{"type":"LineString","coordinates":[[137.975,36.209],[138.044404,36.0762486]]},"properties":{"no":"4101","band":"糸魚川ー静岡構造線","fault":"北部・中部","seg":"（中部１）","mjma":null,"mw":null,"len":16,"width":14,"area":224,"top":2,"strike":157,"dip":100,"rake":0,"slip":null,"chained":null}},{"type":"Feature","geometry":{"type":"LineString","coordinates":[[138.042,36.08],[138.2938537,35.8520197]]},"properties":{"no":"4101","band":"糸魚川ー静岡構造線","fault":"北部・中部","seg":"（中部２）","mjma":null,"mw":null,"len":34,"width":14,"area":426,"top":2,"strike":138,"dip":100,"rake":0,"slip":null,"chained":null}},{"type":"Feature","geometry":{"type":"LineString","coordinates":[[138.271,35.809],[138.4098022,35.563471]]},"properties":{"no":"4201","band":"糸魚川ー静岡構造線","fault":"南部","seg":null,"mjma":null,"mw":6.8,"len":30,"width":20,"area":600,"top":2,"strike":155.2,"dip":45,"rake":null,"slip":null,"chained":null}},{"type":"Feature","geometry":{"type":"LineString","coordinates":[[138.58,35.28],[138.5723447,35.0998385]]},"properties":{"no":"4301","band":"富士川河口断層帯","fault":null,"seg":null,"mjma":8,"mw":7.3,"len":20,"width":8,"area":160,"top":3,"strike":182,"dip":45,"rake":null,"slip":null,"chained":null}},{"type":"Feature","geometry":{"type":"LineString","coordinates":[[137.725,35.676],[137.8419626,35.9290341]]},"properties":{"no":"4501","band":"木曽山脈西縁断層帯","fault":"主部北部","seg":"北半部","mjma":7.5,"mw":6.9,"len":30,"width":18,"area":540,"top":2,"strike":20.6,"dip":40,"rake":90,"slip":1.3,"chained":null}},{"type":"Feature","geometry":{"type":"LineString","coordinates":[[137.6,35.583],[137.7081942,35.673104]]},"properties":{"no":"4501","band":"木曽山脈西縁断層帯","fault":"主部北部","seg":"南半部","mjma":null,"mw":null,"len":14,"width":16,"area":224,"top":2,"strike":44.4,"dip":90,"rake":180,"slip":null,"chained":null}},{"type":"Feature","geometry":{"type":"LineString","coordinates":[[137.583,35.517],[137.5997639,35.6006074]]},"properties":{"no":"4502","band":"木曽山脈西縁断層帯","fault":"主部南部","seg":null,"mjma":6.3,"mw":6,"len":9.4,"width":9,"area":84.6,"top":3,"strike":9.3,"dip":90,"rake":180,"slip":0.5,"chained":null}},{"type":"Feature","geometry":{"type":"LineString","coordinates":[[137.617,35.383],[137.710041,35.7169475]]},"properties":{"no":"4503","band":"木曽山脈西縁断層帯","fault":"清内路峠断層帯","seg":null,"mjma":7.4,"mw":6.8,"len":38,"width":16,"area":608,"top":2,"strike":12.8,"dip":90,"rake":180,"slip":1.2,"chained":null}},{"type":"Feature","geometry":{"type":"LineString","coordinates":[[137.9,35.85],[137.5682232,36.2334288]]},"properties":{"no":"4601","band":"境峠・神谷断層帯","fault":"主部","seg":null,"mjma":7.6,"mw":7,"len":52,"width":16,"area":832,"top":2,"strike":325,"dip":90,"rake":0,"slip":1.7,"chained":null}},{"type":"Feature","geometry":{"type":"LineString","coordinates":[[137.767,35.921],[138.0340059,36.1110439]]},"properties":{"no":"4602","band":"境峠・神谷断層帯","fault":"霧訪山ー奈良井断層帯","seg":null,"mjma":7.2,"mw":6.7,"len":32,"width":16,"area":512,"top":2,"strike":48.7,"dip":90,"rake":180,"slip":1,"chained":null}},{"type":"Feature","geometry":{"type":"LineString","coordinates":[[137.279,36.431],[137.6453241,36.6037243]]},"properties":{"no":"4701","band":"跡津川断層帯","fault":null,"seg":"（北東側）","mjma":7.9,"mw":7.2,"len":38,"width":16,"area":608,"top":2,"strike":59.6,"dip":90,"rake":180,"slip":2.5,"chained":null}},{"type":"Feature","geometry":{"type":"LineString","coordinates":[[136.996,36.047],[137.234523,36.208964]]},"properties":{"no":"4801","band":"高山・大原断層帯","fault":"国府断層帯","seg":null,"mjma":7,"mw":6.6,"len":28,"width":14,"area":392,"top":2,"strike":50,"dip":90,"rake":180,"slip":0.7,"chained":null}},{"type":"Feature","geometry":{"type":"LineString","coordinates":[[136.976,35.888],[137.3846698,36.1653693]]},"properties":{"no":"4802","band":"高山・大原断層帯","fault":"高山断層帯","seg":null,"mjma":7.4,"mw":6.9,"len":48,"width":14,"area":672,"top":2,"strike":50,"dip":90,"rake":180,"slip":1.2,"chained":null}},{"type":"Feature","geometry":{"type":"LineString","coordinates":[[137.281,35.932],[137.5116372,36.0399269]]},"properties":{"no":"4803","band":"高山・大原断層帯","fault":"猪之鼻断層帯","seg":null,"mjma":6.9,"mw":6.5,"len":24,"width":14,"area":336,"top":2,"strike":60,"dip":90,"rake":180,"slip":0.6,"chained":null}},{"type":"Feature","geometry":{"type":"LineString","coordinates":[[136.883,36.267],[137.3971619,36.584083]]},"properties":{"no":"4901","band":"牛首断層帯","fault":null,"seg":null,"mjma":7.7,"mw":7.1,"len":58,"width":16,"area":928,"top":2,"strike":52.5,"dip":90,"rake":180,"slip":2,"chained":null}},{"type":"Feature","geometry":{"type":"LineString","coordinates":[[136.888,36.303],[136.790143,36.5235508]]},"properties":{"no":"5001","band":"庄川断層帯","fault":null,"seg":"（北西側）","mjma":7.9,"mw":7.2,"len":26,"width":14,"area":364,"top":2,"strike":340.3,"dip":90,"rake":0,"slip":2.7,"chained":null}},{"type":"Feature","geometry":{"type":"LineString","coordinates":[[137.06,35.912],[136.8873599,36.3021723]]},"properties":{"no":"5001","band":"庄川断層帯","fault":null,"seg":"（南東側）","mjma":null,"mw":null,"len":46,"width":14,"area":644,"top":2,"strike":340.3,"dip":90,"rake":0,"slip":null,"chained":null}},{"type":"Feature","geometry":{"type":"LineString","coordinates":[[137.858,35.637],[137.9388981,36.0097515]]},"properties":{"no":"5101","band":"伊那谷断層帯","fault":"主部（レシピ通り）","seg":"（北側）","mjma":8,"mw":7.3,"len":42,"width":18,"area":756,"top":2,"strike":10,"dip":110,"rake":90,"slip":2.6,"chained":null}},{"type":"Feature","geometry":{"type":"LineString","coordinates":[[137.9388981,36.0097515],[137.7040347,35.7255955]]},"properties":{"no":"5101","band":"伊那谷断層帯","fault":"主部（レシピ通り）","seg":"（南側）","mjma":null,"mw":null,"len":38,"width":18,"area":684,"top":2,"strike":214,"dip":70,"rake":90,"slip":null,"chained":true}},{"type":"Feature","geometry":{"type":"LineString","coordinates":[[137.858,35.637],[137.9388981,36.0097515]]},"properties":{"no":"5101","band":"伊那谷断層帯","fault":"主部（モーメント調整）","seg":"（北側）","mjma":8,"mw":7.3,"len":42,"width":18,"area":756,"top":2,"strike":10,"dip":110,"rake":90,"slip":2.4,"chained":null}},{"type":"Feature","geometry":{"type":"LineString","coordinates":[[137.9388981,36.0097515],[137.7040347,35.7255955]]},"properties":{"no":"5101","band":"伊那谷断層帯","fault":"主部（モーメント調整）","seg":"（南側）","mjma":null,"mw":null,"len":38,"width":18,"area":684,"top":2,"strike":214,"dip":70,"rake":90,"slip":null,"chained":true}},{"type":"Feature","geometry":{"type":"LineString","coordinates":[[137.829,35.517],[137.7012593,35.2289621]]},"properties":{"no":"5102","band":"伊那谷断層帯","fault":"南東部","seg":null,"mjma":7.3,"mw":6.8,"len":34,"width":18,"area":612,"top":2,"strike":200,"dip":60,"rake":90,"slip":1.1,"chained":null}},{"type":"Feature","geometry":{"type":"LineString","coordinates":[[137.22,35.837],[137.1807122,36.0143939]]},"properties":{"no":"5201","band":"阿寺断層帯","fault":"主部北部","seg":null,"mjma":6.9,"mw":6.4,"len":20,"width":16,"area":320,"top":2,"strike":349.8,"dip":90,"rake":0,"slip":0.6,"chained":null}},{"type":"Feature","geometry":{"type":"LineString","coordinates":[[137.354,35.681],[137.0906699,35.8736932]]},"properties":{"no":"5202","band":"阿寺断層帯","fault":"主部南部","seg":"（北側）","mjma":7.8,"mw":7.2,"len":32,"width":16,"area":512,"top":2,"strike":312,"dip":90,"rake":0,"slip":2.2,"chained":null}},{"type":"Feature","geometry":{"type":"LineString","coordinates":[[137.616,35.488],[137.3533055,35.6807015]]},"properties":{"no":"5202","band":"阿寺断層帯","fault":"主部南部","seg":"（南側）","mjma":null,"mw":null,"len":32,"width":16,"area":512,"top":2,"strike":312,"dip":90,"rake":0,"slip":null,"chained":null}},{"type":"Feature","geometry":{"type":"LineString","coordinates":[[137.085,35.611],[137.3629062,35.7217025]]},"properties":{"no":"5203","band":"阿寺断層帯","fault":"佐見断層帯","seg":null,"mjma":7.2,"mw":6.7,"len":28,"width":16,"area":448,"top":2,"strike":63.9,"dip":90,"rake":180,"slip":0.9,"chained":null}},{"type":"Feature","geometry":{"type":"LineString","coordinates":[[137.051,35.578],[137.4014338,35.6878077]]},"properties":{"no":"5204","band":"阿寺断層帯","fault":"白川断層帯","seg":null,"mjma":7.3,"mw":6.8,"len":34,"width":16,"area":544,"top":2,"strike":68.9,"dip":90,"rake":180,"slip":1.1,"chained":null}},{"type":"Feature","geometry":{"type":"LineString","coordinates":[[137.395,35.405],[137.5887008,35.490859]]},"properties":{"no":"5301","band":"屏風山・恵那山断層帯","fault":"屏風山断層帯","seg":null,"mjma":6.8,"mw":6.4,"len":20,"width":18,"area":360,"top":2,"strike":61.5,"dip":60,"rake":90,"slip":0.4,"chained":null}},{"type":"Feature","geometry":{"type":"LineString","coordinates":[[137.182,35.565],[137.3971901,35.4391936]]},"properties":{"no":"5302","band":"屏風山・恵那山断層帯","fault":"赤河断層帯","seg":null,"mjma":7.1,"mw":6.6,"len":24,"width":18,"area":432,"top":2,"strike":125.5,"dip":60,"rake":90,"slip":0.8,"chained":null}},{"type":"Feature","geometry":{"type":"LineString","coordinates":[[137.1,35.183],[137.2809106,35.314519]]},"properties":{"no":"5303","band":"屏風山・恵那山断層帯","fault":"恵那山-猿投山北断層帯","seg":"（西半部）","mjma":7.7,"mw":7.2,"len":22,"width":18,"area":396,"top":2,"strike":48.4,"dip":90,"rake":180,"slip":2.1,"chained":null}},{"type":"Feature","geometry":{"type":"LineString","coordinates":[[137.231,35.249],[137.5783722,35.439533]]},"properties":{"no":"5303","band":"屏風山・恵那山断層帯","fault":"恵那山-猿投山北断層帯","seg":"（東半部）","mjma":null,"mw":null,"len":38,"width":18,"area":684,"top":2,"strike":56.1,"dip":40,"rake":90,"slip":null,"chained":null}},{"type":"Feature","geometry":{"type":"LineString","coordinates":[[136.959,35.005],[137.1864189,35.2479214]]},"properties":{"no":"5304","band":"屏風山・恵那山断層帯","fault":"猿投-高浜断層帯","seg":"（北半部）","mjma":7.7,"mw":7.1,"len":34,"width":18,"area":612,"top":2,"strike":37.5,"dip":115,"rake":90,"slip":1.7,"chained":null}},{"type":"Feature","geometry":{"type":"LineString","coordinates":[[136.958,34.996],[137.0479674,34.8516579]]},"properties":{"no":"5304","band":"屏風山・恵那山断層帯","fault":"猿投-高浜断層帯","seg":"（南半部）","mjma":null,"mw":null,"len":18,"width":18,"area":324,"top":2,"strike":152.8,"dip":65,"rake":90,"slip":null,"chained":null}},{"type":"Feature","geometry":{"type":"LineString","coordinates":[[136.908,35.036],[136.9379919,34.9306879]]},"properties":{"no":"5305","band":"屏風山・恵那山断層帯","fault":"加木屋断層帯","seg":"（北半部）","mjma":7.4,"mw":6.9,"len":12,"width":18,"area":216,"top":2,"strike":166.8,"dip":60,"rake":90,"slip":1.1,"chained":null}},{"type":"Feature","geometry":{"type":"LineString","coordinates":[[136.938,34.736],[136.8885629,34.9667949]]},"properties":{"no":"5305","band":"屏風山・恵那山断層帯","fault":"加木屋断層帯","seg":"（南半部）","mjma":null,"mw":null,"len":26,"width":18,"area":468,"top":2,"strike":350,"dip":45,"rake":90,"slip":null,"chained":null}},{"type":"Feature","geometry":{"type":"LineString","coordinates":[[138.5,35.52],[138.8315496,35.6634097]]},"properties":{"no":"10401","band":"曽根丘陵断層帯","fault":null,"seg":null,"mjma":7.3,"mw":6.8,"len":34,"width":18,"area":612,"top":2,"strike":62,"dip":30,"rake":90,"slip":1.1,"chained":null}},{"type":"Feature","geometry":{"type":"LineString","coordinates":[[137.491,36.877],[137.377523,36.6809405]]},"properties":{"no":"10501","band":"魚津断層帯","fault":"（レシピ通り）","seg":"（魚津断層）","mjma":7.3,"mw":6.8,"len":24,"width":18,"area":432,"top":3,"strike":205,"dip":43,"rake":90,"slip":1.1,"chained":null}},{"type":"Feature","geometry":{"type":"LineString","coordinates":[[137.377523,36.6809405],[137.4813008,36.7146522]]},"properties":{"no":"10501","band":"魚津断層帯","fault":"（レシピ通り）","seg":"（不動堂断層）","mjma":null,"mw":null,"len":10,"width":18,"area":180,"top":3,"strike":68,"dip":43,"rake":90,"slip":null,"chained":true}},{"type":"Feature","geometry":{"type":"LineString","coordinates":[[137.491,36.877],[137.377523,36.6809405]]},"properties":{"no":"10501","band":"魚津断層帯","fault":"（モーメント調整）","seg":"（魚津断層）","mjma":7.3,"mw":6.8,"len":24,"width":18,"area":432,"top":3,"strike":205,"dip":43,"rake":90,"slip":0.9,"chained":null}},{"type":"Feature","geometry":{"type":"LineString","coordinates":[[137.377523,36.6809405],[137.4813008,36.7146522]]},"properties":{"no":"10501","band":"魚津断層帯","fault":"（モーメント調整）","seg":"（不動堂断層）","mjma":null,"mw":null,"len":10,"width":18,"area":180,"top":3,"strike":68,"dip":43,"rake":90,"slip":null,"chained":true}},{"type":"Feature","geometry":{"type":"LineString","coordinates":[[136.758,36.674],[137.0596052,37.0102346]]},"properties":{"no":"5501","band":"邑知潟断層帯","fault":null,"seg":null,"mjma":7.6,"mw":7,"len":46,"width":18,"area":828,"top":2,"strike":35.7,"dip":30,"rake":90,"slip":1.5,"chained":null}},{"type":"Feature","geometry":{"type":"LineString","coordinates":[[136.957,36.752],[136.7702846,36.5723732]]},"properties":{"no":"5601","band":"砺波平野断層帯・呉羽山断層帯","fault":"砺波平野断層帯西部","seg":null,"mjma":7.3,"mw":6.8,"len":26,"width":22,"area":572,"top":4,"strike":220,"dip":45,"rake":90,"slip":1,"chained":null}},{"type":"Feature","geometry":{"type":"LineString","coordinates":[[136.945,36.453],[137.0679773,36.6246293]]},"properties":{"no":"5602","band":"砺波平野断層帯・呉羽山断層帯","fault":"砺波平野断層帯東部","seg":null,"mjma":7,"mw":6.6,"len":22,"width":18,"area":396,"top":4,"strike":30,"dip":45,"rake":90,"slip":0.7,"chained":null}},{"type":"Feature","geometry":{"type":"LineString","coordinates":[[137.276,36.851],[137.1083209,36.616763]]},"properties":{"no":"5603","band":"砺波平野断層帯・呉羽山断層帯","fault":"呉羽山断層帯","seg":null,"mjma":7.4,"mw":6.9,"len":30,"width":22,"area":660,"top":4,"strike":210,"dip":45,"rake":90,"slip":1.2,"chained":null}},{"type":"Feature","geometry":{"type":"LineString","coordinates":[[136.657,36.451],[136.7831141,36.6620548]]},"properties":{"no":"5701","band":"森本・富樫断層帯","fault":null,"seg":null,"mjma":7.1,"mw":6.6,"len":26,"width":20,"area":520,"top":4,"strike":25.7,"dip":45,"rake":90,"slip":0.7,"chained":null}},{"type":"Feature","geometry":{"type":"LineString","coordinates":[[136.266,36.434],[136.3179515,36.0034768]]},"properties":{"no":"5801","band":"福井平野東縁断層帯","fault":"主部","seg":null,"mjma":7.6,"mw":7,"len":48,"width":16,"area":768,"top":2,"strike":174.4,"dip":90,"rake":0,"slip":1.7,"chained":null}},{"type":"Feature","geometry":{"type":"LineString","coordinates":[[136.132,36.303],[136.2892994,36.004696]]},"properties":{"no":"5802","band":"福井平野東縁断層帯","fault":"西部","seg":null,"mjma":7.4,"mw":6.8,"len":36,"width":16,"area":576,"top":2,"strike":156.8,"dip":90,"rake":0,"slip":1.2,"chained":null}},{"type":"Feature","geometry":{"type":"LineString","coordinates":[[136.974,35.705],[136.809654,35.9604716]]},"properties":{"no":"5901","band":"長良川上流断層帯","fault":null,"seg":null,"mjma":7.3,"mw":6.8,"len":32,"width":16,"area":512,"top":2,"strike":332.4,"dip":90,"rake":0,"slip":1.1,"chained":null}},{"type":"Feature","geometry":{"type":"LineString","coordinates":[[136.483,35.8],[136.3304435,35.9306526]]},"properties":{"no":"6001","band":"濃尾断層帯","fault":"温見断層北西部","seg":null,"mjma":6.8,"mw":6.4,"len":20,"width":12,"area":240,"top":2,"strike":316.5,"dip":90,"rake":0,"slip":0.7,"chained":null}},{"type":"Feature","geometry":{"type":"LineString","coordinates":[[136.483,35.8],[136.6994216,35.7094799]]},"properties":{"no":"6002","band":"濃尾断層帯","fault":"温見断層南東部","seg":null,"mjma":7,"mw":6.6,"len":22,"width":18,"area":396,"top":2,"strike":117.1,"dip":90,"rake":0,"slip":0.7,"chained":null}},{"type":"Feature","geometry":{"type":"LineString","coordinates":[[136.7,35.533],[136.4736948,35.7775195]]},"properties":{"no":"6003","band":"濃尾断層帯","fault":"主部　根尾谷断層帯","seg":null,"mjma":7.3,"mw":6.8,"len":34,"width":14,"area":476,"top":2,"strike":323,"dip":90,"rake":0,"slip":1.2,"chained":null}},{"type":"Feature","geometry":{"type":"LineString","coordinates":[[136.65,35.617],[137.009403,35.4081326]]},"properties":{"no":"6004","band":"濃尾断層帯","fault":"主部　梅原断層帯","seg":null,"mjma":7.4,"mw":6.9,"len":40,"width":18,"area":720,"top":2,"strike":125.3,"dip":90,"rake":0,"slip":1.1,"chained":null}},{"type":"Feature","geometry":{"type":"LineString","coordinates":[[136.7,35.533],[136.8952166,35.4154524]]},"properties":{"no":"6005","band":"濃尾断層帯","fault":"主部　三田洞断層帯","seg":null,"mjma":7,"mw":6.5,"len":22,"width":18,"area":396,"top":2,"strike":126.3,"dip":90,"rake":0,"slip":0.6,"chained":null}},{"type":"Feature","geometry":{"type":"LineString","coordinates":[[136.583,35.65],[136.3244292,35.7886404]]},"properties":{"no":"6006","band":"濃尾断層帯","fault":"揖斐川断層帯","seg":null,"mjma":7.1,"mw":6.6,"len":28,"width":14,"area":392,"top":2,"strike":303.4,"dip":90,"rake":0,"slip":1,"chained":null}},{"type":"Feature","geometry":{"type":"LineString","coordinates":[[136.583,35.65],[136.8978891,35.5195484]]},"properties":{"no":"6007","band":"濃尾断層帯","fault":"武儀川断層","seg":null,"mjma":7.3,"mw":6.8,"len":32,"width":18,"area":576,"top":2,"strike":116.8,"dip":90,"rake":0,"slip":0.9,"chained":null}},{"type":"Feature","geometry":{"type":"LineString","coordinates":[[136.657,36.451],[136.3226462,36.83438]]},"properties":{"no":"6007","band":"濃尾断層帯","fault":"1891年濃尾地震","seg":"（根尾谷・温見）","mjma":8,"mw":7.3,"len":52,"width":14,"area":1120,"top":2,"strike":325,"dip":90,"rake":0,"slip":3.2,"chained":null}},{"type":"Feature","geometry":{"type":"LineString","coordinates":[[136.3226462,36.83438],[136.6163161,36.7456556]]},"properties":{"no":"6007","band":"濃尾断層帯","fault":"1891年濃尾地震","seg":"（梅原）","mjma":null,"mw":null,"len":28,"width":null,"area":null,"top":2,"strike":110.5,"dip":90,"rake":0,"slip":null,"chained":true}},{"type":"Feature","geometry":{"type":"LineString","coordinates":[[135.981,35.905],[136.1838813,35.7388448]]},"properties":{"no":"6101","band":"柳ヶ瀬・関ヶ原断層帯","fault":"主部北部","seg":"（レシピ通り）","mjma":7.6,"mw":7,"len":26,"width":18,"area":468,"top":2,"strike":135.1,"dip":140,"rake":90,"slip":1.5,"chained":null}},{"type":"Feature","geometry":{"type":"LineString","coordinates":[[136.1838813,35.7388448],[136.2923104,35.9559064]]},"properties":{"no":"6101","band":"柳ヶ瀬・関ヶ原断層帯","fault":"主部北部","seg":null,"mjma":null,"mw":null,"len":26,"width":18,"area":468,"top":2,"strike":22.1,"dip":40,"rake":90,"slip":null,"chained":true}},{"type":"Feature","geometry":{"type":"LineString","coordinates":[[135.981,35.905],[136.1838813,35.7388448]]},"properties":{"no":"6101","band":"柳ヶ瀬・関ヶ原断層帯","fault":"主部北部","seg":"（モーメント調整）","mjma":7.6,"mw":7,"len":26,"width":18,"area":323.7,"top":2,"strike":135.1,"dip":140,"rake":90,"slip":1.2,"chained":null}},{"type":"Feature","geometry":{"type":"LineString","coordinates":[[136.1838813,35.7388448],[136.2923104,35.9559064]]},"properties":{"no":"6101","band":"柳ヶ瀬・関ヶ原断層帯","fault":"主部北部","seg":null,"mjma":null,"mw":null,"len":26,"width":18,"area":323.7,"top":2,"strike":22.1,"dip":40,"rake":90,"slip":null,"chained":true}},{"type":"Feature","geometry":{"type":"LineString","coordinates":[[136.167,35.633],[136.1504802,35.7493888]]},"properties":{"no":"6102","band":"柳ヶ瀬・関ヶ原断層帯","fault":"主部中部","seg":null,"mjma":6.6,"mw":6.3,"len":13,"width":12,"area":156,"top":2,"strike":353.4,"dip":90,"rake":0,"slip":0.6,"chained":null}},{"type":"Feature","geometry":{"type":"LineString","coordinates":[[136.167,35.633],[136.5422468,35.3281054]]},"properties":{"no":"6103","band":"柳ヶ瀬・関ヶ原断層帯","fault":"主部南部","seg":null,"mjma":7.6,"mw":7,"len":48,"width":16,"area":768,"top":2,"strike":134.7,"dip":90,"rake":0,"slip":1.7,"chained":null}},{"type":"Feature","geometry":{"type":"LineString","coordinates":[[136.183,35.583],[136.0012843,35.7644586]]},"properties":{"no":"6104","band":"柳ヶ瀬・関ヶ原断層帯","fault":"浦底－柳ヶ瀬山断層帯","seg":null,"mjma":7.2,"mw":6.7,"len":26,"width":18,"area":468,"top":2,"strike":320.8,"dip":90,"rake":0,"slip":0.9,"chained":null}},{"type":"Feature","geometry":{"type":"LineString","coordinates":[[136.05,35.6],[135.7905334,35.821632]]},"properties":{"no":"6301","band":"野坂・集福寺断層帯","fault":"野坂断層帯","seg":null,"mjma":7.3,"mw":6.8,"len":34,"width":16,"area":544,"top":2,"strike":316.4,"dip":90,"rake":0,"slip":1.1,"chained":null}},{"type":"Feature","geometry":{"type":"LineString","coordinates":[[136.167,35.533],[136.0998993,35.5999376]]},"properties":{"no":"6302","band":"野坂・集福寺断層帯","fault":"集福寺断層","seg":null,"mjma":6.5,"mw":6.2,"len":9.6,"width":10,"area":96,"top":2,"strike":320.7,"dip":90,"rake":0,"slip":0.7,"chained":null}},{"type":"Feature","geometry":{"type":"LineString","coordinates":[[135.981,35.479],[136.1276328,35.6804064]]},"properties":{"no":"6401","band":"湖北山地断層帯","fault":"北西部","seg":null,"mjma":7.2,"mw":6.7,"len":26,"width":18,"area":468,"top":2,"strike":30.7,"dip":90,"rake":180,"slip":0.9,"chained":null}},{"type":"Feature","geometry":{"type":"LineString","coordinates":[[136.117,35.583],[135.9774781,35.4434257]]},"properties":{"no":"6402","band":"湖北山地断層帯","fault":"南東部","seg":null,"mjma":6.8,"mw":6.4,"len":20,"width":16,"area":320,"top":2,"strike":219.3,"dip":90,"rake":180,"slip":0.5,"chained":null}},{"type":"Feature","geometry":{"type":"LineString","coordinates":[[136.037,35.487],[135.8449093,34.9696679]]},"properties":{"no":"6501","band":"琵琶湖西岸断層帯","fault":null,"seg":null,"mjma":7.7,"mw":7.1,"len":60,"width":16,"area":960,"top":3,"strike":197,"dip":70,"rake":90,"slip":1.7,"chained":null}},{"type":"Feature","geometry":{"type":"LineString","coordinates":[[136.641,35.066],[136.4479986,35.3898977]]},"properties":{"no":"6701","band":"養老-桑名-四日市断層帯","fault":"（レシピ通り）","seg":null,"mjma":7.8,"mw":7.2,"len":40,"width":18,"area":720,"top":2,"strike":334,"dip":150,"rake":90,"slip":2,"chained":null}},{"type":"Feature","geometry":{"type":"LineString","coordinates":[[136.641,35.066],[136.546969,34.8834226]]},"properties":{"no":"6701","band":"養老-桑名-四日市断層帯","fault":"（レシピ通り）","seg":null,"mjma":null,"mw":null,"len":22,"width":18,"area":396,"top":2,"strike":203,"dip":30,"rake":90,"slip":null,"chained":null}},{"type":"Feature","geometry":{"type":"LineString","coordinates":[[136.641,35.066],[136.4479986,35.3898977]]},"properties":{"no":"6701","band":"養老-桑名-四日市断層帯","fault":"（モーメント調整）","seg":null,"mjma":7.8,"mw":7.2,"len":40,"width":18,"area":720,"top":2,"strike":334,"dip":150,"rake":90,"slip":1.5,"chained":null}},{"type":"Feature","geometry":{"type":"LineString","coordinates":[[136.641,35.066],[136.546969,34.8834226]]},"properties":{"no":"6701","band":"養老-桑名-四日市断層帯","fault":"（モーメント調整）","seg":null,"mjma":null,"mw":null,"len":22,"width":18,"area":396,"top":2,"strike":203,"dip":30,"rake":90,"slip":null,"chained":null}},{"type":"Feature","geometry":{"type":"LineString","coordinates":[[136.489,35.339],[136.386977,34.9145417]]},"properties":{"no":"6801","band":"鈴鹿東縁断層帯","fault":null,"seg":null,"mjma":7.6,"mw":7,"len":48,"width":18,"area":864,"top":2,"strike":191.2,"dip":60,"rake":90,"slip":1.6,"chained":null}},{"type":"Feature","geometry":{"type":"LineString","coordinates":[[136.366,34.908],[136.3483448,35.3223746]]},"properties":{"no":"6901","band":"鈴鹿西縁断層帯","fault":null,"seg":null,"mjma":7.6,"mw":7,"len":46,"width":18,"area":828,"top":1,"strike":358,"dip":35,"rake":90,"slip":1.5,"chained":null}},{"type":"Feature","geometry":{"type":"LineString","coordinates":[[136.222,34.696],[136.2036579,34.9840536]]},"properties":{"no":"7001","band":"頓宮断層","fault":null,"seg":null,"mjma":7.3,"mw":6.8,"len":32,"width":18,"area":576,"top":1,"strike":357,"dip":65,"rake":90,"slip":1.1,"chained":null}},{"type":"Feature","geometry":{"type":"LineString","coordinates":[[136.402,34.912],[136.4355957,34.6067742]]},"properties":{"no":"7101","band":"布引山地東縁断層帯","fault":"西部","seg":null,"mjma":7.4,"mw":6.8,"len":34,"width":18,"area":612,"top":2,"strike":174.8,"dip":55,"rake":90,"slip":1.1,"chained":null}},{"type":"Feature","geometry":{"type":"LineString","coordinates":[[136.599,34.879],[136.4435638,34.4469685]]},"properties":{"no":"7102","band":"布引山地東縁断層帯","fault":"東部","seg":null,"mjma":7.6,"mw":7,"len":50,"width":18,"area":900,"top":2,"strike":196.6,"dip":45,"rake":90,"slip":1.6,"chained":null}},{"type":"Feature","geometry":{"type":"LineString","coordinates":[[136.264,34.857],[135.9355657,34.7579]]},"properties":{"no":"7201","band":"木津川断層帯","fault":null,"seg":null,"mjma":7.3,"mw":6.8,"len":32,"width":18,"area":576,"top":1,"strike":250,"dip":50,"rake":90,"slip":1.1,"chained":null}},{"type":"Feature","geometry":{"type":"LineString","coordinates":[[135.907,35.441],[135.8891925,35.6929439]]},"properties":{"no":"7301","band":"三方・花折断層帯","fault":"三方断層帯","seg":null,"mjma":7.2,"mw":6.7,"len":28,"width":18,"area":504,"top":1,"strike":356.7,"dip":60,"rake":90,"slip":0.9,"chained":null}},{"type":"Feature","geometry":{"type":"LineString","coordinates":[[135.867,35.183],[135.9597371,35.4424969]]},"properties":{"no":"7302","band":"三方・花折断層帯","fault":"花折断層帯北部","seg":null,"mjma":7.2,"mw":6.7,"len":30,"width":18,"area":540,"top":1,"strike":16.3,"dip":90,"rake":180,"slip":0.8,"chained":null}},{"type":"Feature","geometry":{"type":"LineString","coordinates":[[135.867,35.183],[135.7755536,34.9994951]]},"properties":{"no":"7303","band":"三方・花折断層帯","fault":"花折断層帯中南部","seg":"中部","mjma":7.4,"mw":6.9,"len":22,"width":18,"area":396,"top":1,"strike":202.3,"dip":90,"rake":180,"slip":1.1,"chained":null}},{"type":"Feature","geometry":{"type":"LineString","coordinates":[[135.825,34.89],[135.8091084,35.0336277]]},"properties":{"no":"7303","band":"三方・花折断層帯","fault":"花折断層帯中南部","seg":"南部","mjma":null,"mw":null,"len":16,"width":18,"area":288,"top":1,"strike":354.8,"dip":50,"rake":90,"slip":null,"chained":null}},{"type":"Feature","geometry":{"type":"LineString","coordinates":[[134.928,35.469],[135.2569734,35.6812909]]},"properties":{"no":"7401","band":"山田断層帯","fault":"主部","seg":null,"mjma":7.4,"mw":6.8,"len":38,"width":16,"area":608,"top":1,"strike":51.6,"dip":90,"rake":180,"slip":1.1,"chained":null}},{"type":"Feature","geometry":{"type":"LineString","coordinates":[[135.094,35.567],[134.9095382,35.8746824]]},"properties":{"no":"7402","band":"山田断層帯","fault":"郷村断層帯","seg":null,"mjma":7.4,"mw":6.8,"len":38,"width":16,"area":608,"top":1,"strike":334,"dip":90,"rake":0,"slip":1.2,"chained":null}},{"type":"Feature","geometry":{"type":"LineString","coordinates":[[135.858,34.512],[135.8236984,34.8352758]]},"properties":{"no":"7501","band":"奈良盆地東縁断層帯","fault":null,"seg":null,"mjma":7.4,"mw":6.9,"len":36,"width":18,"area":648,"top":1,"strike":355,"dip":55,"rake":90,"slip":1.2,"chained":null}},{"type":"Feature","geometry":{"type":"LineString","coordinates":[[135.062,34.796],[135.3835572,34.8490264]]},"properties":{"no":"7601","band":"有馬-高槻断層帯","fault":null,"seg":"（西側）","mjma":7.7,"mw":7.1,"len":30,"width":16,"area":480,"top":1,"strike":78.6,"dip":90,"rake":180,"slip":2,"chained":null}},{"type":"Feature","geometry":{"type":"LineString","coordinates":[[135.383,34.85],[135.7047675,34.9030251]]},"properties":{"no":"7601","band":"有馬-高槻断層帯","fault":null,"seg":"（東側）","mjma":null,"mw":null,"len":30,"width":16,"area":480,"top":1,"strike":78.6,"dip":90,"rake":180,"slip":null,"chained":null}},{"type":"Feature","geometry":{"type":"LineString","coordinates":[[135.646,34.52],[135.7174567,34.8757088]]},"properties":{"no":"7701","band":"生駒断層帯","fault":null,"seg":null,"mjma":7.5,"mw":6.9,"len":40,"width":18,"area":720,"top":2,"strike":9.4,"dip":35,"rake":90,"slip":1.3,"chained":null}},{"type":"Feature","geometry":{"type":"LineString","coordinates":[[135.518,35.427],[135.2417598,35.2790183]]},"properties":{"no":"7801","band":"三峠・京都西山断層帯","fault":"上林川断層","seg":null,"mjma":7.2,"mw":6.7,"len":30,"width":16,"area":480,"top":1,"strike":236.9,"dip":90,"rake":180,"slip":0.9,"chained":null}},{"type":"Feature","geometry":{"type":"LineString","coordinates":[[135.489,35.213],[135.1666113,35.2692526]]},"properties":{"no":"7802","band":"三峠・京都西山断層帯","fault":"三峠断層","seg":null,"mjma":7.2,"mw":6.7,"len":30,"width":16,"area":480,"top":1,"strike":282.1,"dip":90,"rake":0,"slip":0.9,"chained":null}},{"type":"Feature","geometry":{"type":"LineString","coordinates":[[135.667,35.033],[135.3773518,35.1612684]]},"properties":{"no":"7803","band":"三峠・京都西山断層帯","fault":"京都西山断層帯","seg":"北西半部","mjma":7.6,"mw":7,"len":30,"width":18,"area":540,"top":1,"strike":298.4,"dip":90,"rake":0,"slip":1.7,"chained":null}},{"type":"Feature","geometry":{"type":"LineString","coordinates":[[135.656,35.034],[135.6491293,34.8718484]]},"properties":{"no":"7803","band":"三峠・京都西山断層帯","fault":"京都西山断層帯","seg":"南東半部","mjma":null,"mw":null,"len":18,"width":18,"area":324,"top":1,"strike":182,"dip":45,"rake":90,"slip":null,"chained":null}},{"type":"Feature","geometry":{"type":"LineString","coordinates":[[135.526,34.845],[135.2062808,34.6561348]]},"properties":{"no":"7901","band":"六甲・淡路島断層帯","fault":"主部 六甲山地南縁-淡路島東岸区間","seg":"（北東側）","mjma":7.9,"mw":7.3,"len":36,"width":18,"area":648,"top":1,"strike":234.5,"dip":60,"rake":180,"slip":2.3,"chained":null}},{"type":"Feature","geometry":{"type":"LineString","coordinates":[[135.206,34.657],[134.8693194,34.4576147]]},"properties":{"no":"7901","band":"六甲・淡路島断層帯","fault":"主部 六甲山地南縁-淡路島東岸区間","seg":"（南西側）","mjma":null,"mw":null,"len":38,"width":18,"area":684,"top":1,"strike":234.5,"dip":60,"rake":180,"slip":null,"chained":null}},{"type":"Feature","geometry":{"type":"LineString","coordinates":[[134.821,34.492],[135.0821644,34.622474]]},"properties":{"no":"7902","band":"六甲・淡路島断層帯","fault":"主部 淡路島西岸区間","seg":null,"mjma":7.1,"mw":6.6,"len":28,"width":16,"area":448,"top":1,"strike":58.8,"dip":80,"rake":180,"slip":0.8,"chained":null}},{"type":"Feature","geometry":{"type":"LineString","coordinates":[[134.875,34.421],[134.8088457,34.3383877]]},"properties":{"no":"7903","band":"六甲・淡路島断層帯","fault":"先山断層帯","seg":null,"mjma":6.6,"mw":6.3,"len":11,"width":11,"area":121,"top":1,"strike":213.6,"dip":45,"rake":90,"slip":null,"chained":null}},{"type":"Feature","geometry":{"type":"LineString","coordinates":[[135.421,34.414],[135.4927171,34.824402]]},"properties":{"no":"8001","band":"上町断層帯","fault":"（直線ケース）","seg":null,"mjma":7.5,"mw":7,"len":46,"width":16,"area":736,"top":2,"strike":8.2,"dip":70,"rake":90,"slip":1.5,"chained":null}},{"type":"Feature","geometry":{"type":"LineString","coordinates":[[135.523,34.647],[135.4880465,34.8249604]]},"properties":{"no":"8001","band":"上町断層帯","fault":"（屈曲ケース）","seg":"（北側）","mjma":7.5,"mw":7,"len":20,"width":16,"area":320,"top":2,"strike":350.8,"dip":70,"rake":90,"slip":1.5,"chained":null}},{"type":"Feature","geometry":{"type":"LineString","coordinates":[[135.4880465,34.8249604],[135.382777,34.607305]]},"properties":{"no":"8001","band":"上町断層帯","fault":"（屈曲ケース）","seg":"（南側）","mjma":null,"mw":null,"len":26,"width":16,"area":416,"top":2,"strike":201.8,"dip":110,"rake":90,"slip":null,"chained":true}},{"type":"Feature","geometry":{"type":"LineString","coordinates":[[136.831,34.771],[136.7382828,34.9925605]]},"properties":{"no":"9701","band":"伊勢湾断層帯","fault":"主部北部","seg":null,"mjma":7.2,"mw":6.7,"len":26,"width":18,"area":468,"top":3,"strike":341,"dip":65,"rake":90,"slip":0.9,"chained":null}},{"type":"Feature","geometry":{"type":"LineString","coordinates":[[136.988,34.693],[136.824769,34.7833882]]},"properties":{"no":"9702","band":"伊勢湾断層帯","fault":"主部南部","seg":null,"mjma":6.9,"mw":6.4,"len":18,"width":18,"area":324,"top":2,"strike":303.9,"dip":45,"rake":90,"slip":0.6,"chained":null}},{"type":"Feature","geometry":{"type":"LineString","coordinates":[[136.805,34.777],[136.564655,34.7771089]]},"properties":{"no":"9703","band":"伊勢湾断層帯","fault":"白子-野間断層","seg":null,"mjma":7,"mw":6.6,"len":22,"width":18,"area":396,"top":2,"strike":270.1,"dip":60,"rake":90,"slip":0.7,"chained":null}},{"type":"Feature","geometry":{"type":"LineString","coordinates":[[135.219,34.69],[135.0124047,34.3321213]]},"properties":{"no":"9801","band":"大阪湾断層帯","fault":null,"seg":null,"mjma":7.5,"mw":6.9,"len":44,"width":12,"area":528,"top":4,"strike":205.6,"dip":70,"rake":90,"slip":1.8,"chained":null}},{"type":"Feature","geometry":{"type":"LineString","coordinates":[[135.681,34.419],[135.6449748,34.5229796]]},"properties":{"no":"8101","band":"中央構造線断層帯","fault":"金剛山地東縁－和泉山脈南縁","seg":"金剛山地東縁","mjma":7.7,"mw":7.1,"len":12,"width":16,"area":95,"top":4,"strike":344,"dip":137,"rake":90,"slip":1.7,"chained":null}},{"type":"Feature","geometry":{"type":"LineString","coordinates":[[135.6449748,34.5229796],[135.0179241,34.3722827]]},"properties":{"no":"8101","band":"中央構造線断層帯","fault":"金剛山地東縁－和泉山脈南縁","seg":"和泉山脈南縁","mjma":null,"mw":null,"len":60,"width":16,"area":871,"top":4,"strike":254,"dip":43,"rake":180,"slip":null,"chained":true}},{"type":"Feature","geometry":{"type":"LineString","coordinates":[[135.195,34.318],[134.6195117,34.2245949]]},"properties":{"no":"8102","band":"中央構造線断層帯","fault":"紀淡海峡－鳴門海峡","seg":null,"mjma":7.7,"mw":7.1,"len":54,"width":18,"area":972,"top":4,"strike":259.1,"dip":30,"rake":180,"slip":1.7,"chained":null}},{"type":"Feature","geometry":{"type":"LineString","coordinates":[[134.647,34.219],[134.3300064,34.157752]]},"properties":{"no":"8103","band":"中央構造線断層帯","fault":"讃岐山脈南縁-石鎚山脈北縁東部","seg":"（鳴門・板野・神田区間）","mjma":8,"mw":7.6,"len":30,"width":24,"area":720,"top":4,"strike":257,"dip":35,"rake":180,"slip":3.4,"chained":null}},{"type":"Feature","geometry":{"type":"LineString","coordinates":[[134.329,34.158],[134.0966602,34.113165]]},"properties":{"no":"8103","band":"中央構造線断層帯","fault":"（地震モーメント調整）","seg":"（父尾・井口区間）","mjma":null,"mw":null,"len":22,"width":24,"area":528,"top":4,"strike":257,"dip":35,"rake":180,"slip":null,"chained":null}},{"type":"Feature","geometry":{"type":"LineString","coordinates":[[134.097,34.113],[133.8225882,34.059966]]},"properties":{"no":"8103","band":"中央構造線断層帯","fault":"（地震モーメント調整）","seg":"（三野・箸蔵・池田区間東側）","mjma":null,"mw":null,"len":26,"width":24,"area":624,"top":4,"strike":257,"dip":35,"rake":180,"slip":null,"chained":null}},{"type":"Feature","geometry":{"type":"LineString","coordinates":[[133.8225882,34.059966],[133.5483471,34.0069322]]},"properties":{"no":"8103","band":"中央構造線断層帯","fault":"（地震モーメント調整）","seg":"（三野・箸蔵・池田区間西側）","mjma":null,"mw":null,"len":26,"width":24,"area":624,"top":4,"strike":257,"dip":35,"rake":180,"slip":null,"chained":true}},{"type":"Feature","geometry":{"type":"LineString","coordinates":[[133.547,34.008],[133.2518572,33.9508615]]},"properties":{"no":"8103","band":"中央構造線断層帯","fault":"（地震モーメント調整）","seg":"（寒川・石鎚区間）","mjma":null,"mw":null,"len":28,"width":24,"area":672,"top":4,"strike":257,"dip":35,"rake":180,"slip":null,"chained":null}},{"type":"Feature","geometry":{"type":"LineString","coordinates":[[134.636,34.217],[134.2978977,34.1516397]]},"properties":{"no":"8103","band":"中央構造線断層帯","fault":"讃岐山脈南縁-石鎚山脈北縁東部","seg":"（鳴門・板野・神田-父尾・井口区間東側）","mjma":8,"mw":7.4,"len":32,"width":18,"area":576,"top":4,"strike":257,"dip":35,"rake":180,"slip":1.7,"chained":null}},{"type":"Feature","geometry":{"type":"LineString","coordinates":[[134.329,34.158],[134.0966602,34.113165]]},"properties":{"no":"8103","band":"中央構造線断層帯","fault":"（セグメントごとの地震モーメントを合算）","seg":"（鳴門・板野・神田-父尾・井口区間西側）","mjma":null,"mw":null,"len":22,"width":18,"area":396,"top":4,"strike":257,"dip":35,"rake":180,"slip":null,"chained":null}},{"type":"Feature","geometry":{"type":"LineString","coordinates":[[134.097,34.113],[133.8225882,34.059966]]},"properties":{"no":"8103","band":"中央構造線断層帯","fault":"（セグメントごとの地震モーメントを合算）","seg":"（三野・箸蔵・池田-寒川・石鎚区間東側）","mjma":null,"mw":null,"len":26,"width":18,"area":468,"top":4,"strike":257,"dip":35,"rake":180,"slip":2.6,"chained":null}},{"type":"Feature","geometry":{"type":"LineString","coordinates":[[133.8225882,34.059966],[133.5483471,34.0069322]]},"properties":{"no":"8103","band":"中央構造線断層帯","fault":"（セグメントごとの地震モーメントを合算）","seg":"（三野・箸蔵・池田-寒川・石鎚区間中央側）","mjma":null,"mw":null,"len":26,"width":18,"area":468,"top":4,"strike":257,"dip":35,"rake":180,"slip":null,"chained":true}},{"type":"Feature","geometry":{"type":"LineString","coordinates":[[133.547,34.008],[133.2307907,33.9467531]]},"properties":{"no":"8103","band":"中央構造線断層帯","fault":"（セグメントごとの地震モーメントを合算）","seg":"（三野・箸蔵・池田-寒川・石鎚区間西側）","mjma":null,"mw":null,"len":30,"width":18,"area":540,"top":4,"strike":257,"dip":35,"rake":180,"slip":null,"chained":null}},{"type":"Feature","geometry":{"type":"LineString","coordinates":[[133.079,33.878],[133.4298685,33.9696743]]},"properties":{"no":"8104","band":"中央構造線断層帯","fault":"石鎚山脈北縁","seg":null,"mjma":7.3,"mw":6.8,"len":34,"width":14,"area":476,"top":4,"strike":72.5,"dip":90,"rake":null,"slip":1.2,"chained":null}},{"type":"Feature","geometry":{"type":"LineString","coordinates":[[133.243,33.937],[132.8582409,33.77268]]},"properties":{"no":"8105","band":"中央構造線断層帯","fault":"石鎚山脈北縁西部-伊予灘","seg":"（川上・重信区間）","mjma":8,"mw":7.4,"len":40,"width":14,"area":560,"top":4,"strike":243,"dip":90,"rake":180,"slip":3.2,"chained":null}},{"type":"Feature","geometry":{"type":"LineString","coordinates":[[132.857,33.774],[132.4576339,33.6962862]]},"properties":{"no":"8105","band":"中央構造線断層帯","fault":"石鎚山脈北縁西部-伊予灘","seg":"（伊予区間）","mjma":null,"mw":null,"len":38,"width":14,"area":532,"top":4,"strike":257,"dip":90,"rake":180,"slip":null,"chained":null}},{"type":"Feature","geometry":{"type":"LineString","coordinates":[[132.491,33.618],[132.2181641,33.5649674]]},"properties":{"no":"8105","band":"中央構造線断層帯","fault":"石鎚山脈北縁西部-伊予灘","seg":"（伊予灘区間東側）","mjma":null,"mw":null,"len":26,"width":14,"area":364,"top":4,"strike":257,"dip":90,"rake":180,"slip":null,"chained":null}},{"type":"Feature","geometry":{"type":"LineString","coordinates":[[132.2181641,33.5649674],[131.9454948,33.511935]]},"properties":{"no":"8105","band":"中央構造線断層帯","fault":"石鎚山脈北縁西部-伊予灘","seg":"（伊予灘区間西側）","mjma":null,"mw":null,"len":26,"width":14,"area":364,"top":4,"strike":257,"dip":90,"rake":180,"slip":null,"chained":true}},{"type":"Feature","geometry":{"type":"LineString","coordinates":[[133.282,33.954],[132.8587624,33.7731819]]},"properties":{"no":"8105","band":"中央構造線断層帯","fault":"石鎚山脈北縁西部-伊予灘","seg":"（川上・重信-伊予区間東側）","mjma":8,"mw":7.4,"len":44,"width":14,"area":616,"top":4,"strike":243,"dip":90,"rake":180,"slip":3.2,"chained":null}},{"type":"Feature","geometry":{"type":"LineString","coordinates":[[132.857,33.774],[132.4921335,33.6179238]]},"properties":{"no":"8105","band":"中央構造線断層帯","fault":"（セグメントごとの地震モーメントを合算）","seg":"（川上・重信-伊予区間西側）","mjma":null,"mw":null,"len":38,"width":14,"area":532,"top":4,"strike":243,"dip":90,"rake":180,"slip":null,"chained":null}},{"type":"Feature","geometry":{"type":"LineString","coordinates":[[132.491,33.618],[132.2225067,33.5031001]]},"properties":{"no":"8105","band":"中央構造線断層帯","fault":"（セグメントごとの地震モーメントを合算）","seg":"（伊予灘区間東側）","mjma":null,"mw":null,"len":28,"width":14,"area":392,"top":4,"strike":243,"dip":90,"rake":180,"slip":2.1,"chained":null}},{"type":"Feature","geometry":{"type":"LineString","coordinates":[[132.2225067,33.5031001],[131.9543671,33.3881993]]},"properties":{"no":"8105","band":"中央構造線断層帯","fault":"（セグメントごとの地震モーメントを合算）","seg":"（伊予灘区間西側）","mjma":null,"mw":null,"len":28,"width":14,"area":392,"top":4,"strike":243,"dip":90,"rake":180,"slip":null,"chained":true}},{"type":"Feature","geometry":{"type":"LineString","coordinates":[[134.217,35.17],[133.8687385,35.1328494]]},"properties":{"no":"8201モデル5","band":"山崎断層帯","fault":"那岐山断層帯","seg":null,"mjma":7.6,"mw":7,"len":32,"width":26,"area":832,"top":2,"strike":262.7,"dip":45,"rake":90,"slip":1.5,"chained":null}},{"type":"Feature","geometry":{"type":"LineString","coordinates":[[134.717,34.883],[134.2439282,35.1441845]]},"properties":{"no":"8202モデル2","band":"山崎断層帯","fault":"主部北西部","seg":null,"mjma":7.7,"mw":7.1,"len":52,"width":18,"area":936,"top":2,"strike":304,"dip":90,"rake":0,"slip":1.7,"chained":null}},{"type":"Feature","geometry":{"type":"LineString","coordinates":[[135,34.783],[134.7483881,34.9565633]]},"properties":{"no":"8203モデル3","band":"山崎断層帯","fault":"主部南東部","seg":null,"mjma":7.3,"mw":6.7,"len":30,"width":18,"area":540,"top":2,"strike":310,"dip":90,"rake":0,"slip":1,"chained":null}},{"type":"Feature","geometry":{"type":"LineString","coordinates":[[135,34.783],[134.7483881,34.9565633]]},"properties":{"no":"モデル4","band":"山崎断層帯","fault":"主部南東部・草谷断層","seg":"主部南東部","mjma":7.5,"mw":7,"len":30,"width":18,"area":540,"top":2,"strike":310,"dip":90,"rake":0,"slip":1.4,"chained":null}},{"type":"Feature","geometry":{"type":"LineString","coordinates":[[134.7483881,34.9565633],[134.8812339,35.0195876]]},"properties":{"no":"モデル4","band":"山崎断層帯","fault":"主部南東部・草谷断層","seg":"草谷断層","mjma":null,"mw":null,"len":14,"width":18,"area":252,"top":2,"strike":60,"dip":90,"rake":180,"slip":null,"chained":true}},{"type":"Feature","geometry":{"type":"LineString","coordinates":[[134.533,34.989],[134.247968,35.1238719]]},"properties":{"no":"モデル1","band":"山崎断層帯","fault":"大原・土万・安富・主部南東部","seg":"大原・土万断層","mjma":8,"mw":7.3,"len":30,"width":18,"area":540,"top":2,"strike":300,"dip":90,"rake":0,"slip":2.6,"chained":null}},{"type":"Feature","geometry":{"type":"LineString","coordinates":[[134.749,34.957],[134.533273,34.9881133]]},"properties":{"no":"モデル1","band":"山崎断層帯","fault":"大原・土万・安富・主部南東部","seg":"安富断層","mjma":null,"mw":null,"len":20,"width":18,"area":360,"top":2,"strike":280,"dip":90,"rake":0,"slip":null,"chained":null}},{"type":"Feature","geometry":{"type":"LineString","coordinates":[[135,34.783],[134.7483881,34.9565633]]},"properties":{"no":"モデル1","band":"山崎断層帯","fault":"大原・土万・安富・主部南東部","seg":"琵琶甲・三木断層","mjma":null,"mw":null,"len":30,"width":18,"area":540,"top":2,"strike":310,"dip":90,"rake":0,"slip":null,"chained":null}},{"type":"Feature","geometry":{"type":"LineString","coordinates":[[134.883,34.733],[134.9965473,34.7870322]]},"properties":{"no":"8204","band":"山崎断層帯","fault":"草谷断層","seg":null,"mjma":6.7,"mw":6.3,"len":12,"width":12,"area":144,"top":2,"strike":60,"dip":90,"rake":180,"slip":0.8,"chained":null}},{"type":"Feature","geometry":{"type":"LineString","coordinates":[[133.997,34.177],[134.2755895,34.2137546]]},"properties":{"no":"8401","band":"長尾断層帯","fault":null,"seg":null,"mjma":7.1,"mw":6.6,"len":26,"width":18,"area":468,"top":3,"strike":80.9,"dip":35,"rake":90,"slip":0.8,"chained":null}},{"type":"Feature","geometry":{"type":"LineString","coordinates":[[132.313,34.308],[132.3882125,34.4962706]]},"properties":{"no":"8701","band":"五日市断層帯","fault":"五日市断層","seg":null,"mjma":7,"mw":6.5,"len":22,"width":18,"area":396,"top":2,"strike":18.3,"dip":90,"rake":180,"slip":0.7,"chained":null}},{"type":"Feature","geometry":{"type":"LineString","coordinates":[[132.417,34.367],[132.4501436,34.4500158]]},"properties":{"no":"8702","band":"五日市断層帯","fault":"己斐－広島西縁断層帯","seg":null,"mjma":6.5,"mw":6.2,"len":9.7,"width":10,"area":97,"top":2,"strike":18.3,"dip":90,"rake":180,"slip":0.7,"chained":null}},{"type":"Feature","geometry":{"type":"LineString","coordinates":[[131.773,34.079],[132.2263428,34.2521082]]},"properties":{"no":"8801","band":"岩国断層帯","fault":null,"seg":null,"mjma":7.6,"mw":7,"len":46,"width":18,"area":828,"top":2,"strike":65.2,"dip":90,"rake":180,"slip":1.5,"chained":null}},{"type":"Feature","geometry":{"type":"LineString","coordinates":[[131.099,34.088],[130.7142158,34.3797385]]},"properties":{"no":"9001","band":"菊川断層帯","fault":null,"seg":null,"mjma":7.6,"mw":7,"len":48,"width":16,"area":768,"top":2,"strike":312.5,"dip":90,"rake":0,"slip":1.6,"chained":null}},{"type":"Feature","geometry":{"type":"LineString","coordinates":[[131.394,33.659],[131.6652047,34.0065126]]},"properties":{"no":"10601","band":"周防灘断層群","fault":"主部","seg":null,"mjma":7.6,"mw":7,"len":46,"width":18,"area":828,"top":2,"strike":33,"dip":90,"rake":180,"slip":1.5,"chained":null}},{"type":"Feature","geometry":{"type":"LineString","coordinates":[[131.38,33.763],[131.5398136,33.9334007]]},"properties":{"no":"10602","band":"周防灘断層群","fault":"秋穂沖断層帯","seg":null,"mjma":7.1,"mw":6.6,"len":24,"width":18,"area":432,"top":2,"strike":38,"dip":90,"rake":180,"slip":0.8,"chained":null}},{"type":"Feature","geometry":{"type":"LineString","coordinates":[[131.263,33.85],[131.3429086,33.9352256]]},"properties":{"no":"10603","band":"周防灘断層群","fault":"宇部南方沖断層帯","seg":"（北部）","mjma":7.1,"mw":6.6,"len":12,"width":18,"area":216,"top":2,"strike":38,"dip":90,"rake":null,"slip":0.7,"chained":null}},{"type":"Feature","geometry":{"type":"LineString","coordinates":[[130.681,33.581],[130.4725564,33.8548649]]},"properties":{"no":"9101","band":"西山断層帯","fault":null,"seg":null,"mjma":7.3,"mw":6.8,"len":36,"width":16,"area":576,"top":2,"strike":327.6,"dip":90,"rake":0,"slip":1.1,"chained":null}},{"type":"Feature","geometry":{"type":"LineString","coordinates":[[131.492,33.299],[132.0056272,33.3356582]]},"properties":{"no":"9201","band":"別府－万年山断層帯","fault":"別府湾－日出生断層帯東部","seg":null,"mjma":7.6,"mw":7,"len":48,"width":14,"area":672,"top":3,"strike":85,"dip":60,"rake":-90,"slip":1.7,"chained":null}},{"type":"Feature","geometry":{"type":"LineString","coordinates":[[131.129,33.318],[131.5156106,33.3173985]]},"properties":{"no":"9202","band":"別府－万年山断層帯","fault":"別府湾－日出生断層帯西部","seg":null,"mjma":7.3,"mw":6.8,"len":36,"width":14,"area":504,"top":3,"strike":90,"dip":60,"rake":-90,"slip":1.3,"chained":null}},{"type":"Feature","geometry":{"type":"LineString","coordinates":[[131.747,33.261],[131.4107217,33.3200401]]},"properties":{"no":"9203","band":"別府－万年山断層帯","fault":"大分平野－由布院断層帯東部","seg":null,"mjma":7.2,"mw":6.7,"len":32,"width":14,"area":448,"top":3,"strike":281.9,"dip":60,"rake":-90,"slip":1,"chained":null}},{"type":"Feature","geometry":{"type":"LineString","coordinates":[[131.452,33.285],[131.2609416,33.2608645]]},"properties":{"no":"9204","band":"別府－万年山断層帯","fault":"大分平野－由布院断層帯西部","seg":null,"mjma":6.7,"mw":6.3,"len":18,"width":14,"area":252,"top":3,"strike":261.5,"dip":60,"rake":-90,"slip":0.5,"chained":null}},{"type":"Feature","geometry":{"type":"LineString","coordinates":[[130.962,33.218],[131.3267165,33.2174655]]},"properties":{"no":"9205","band":"別府－万年山断層帯","fault":"野稲岳－万年山断層帯","seg":null,"mjma":7.3,"mw":6.8,"len":34,"width":14,"area":476,"top":3,"strike":90,"dip":60,"rake":-90,"slip":1.2,"chained":null}},{"type":"Feature","geometry":{"type":"LineString","coordinates":[[131.373,33.18],[130.9677649,33.216344]]},"properties":{"no":"9206","band":"別府－万年山断層帯","fault":"崩平山－亀石山断層帯","seg":null,"mjma":7.4,"mw":6.8,"len":38,"width":14,"area":532,"top":3,"strike":276.2,"dip":60,"rake":-90,"slip":1.4,"chained":null}},{"type":"Feature","geometry":{"type":"LineString","coordinates":[[130.783,32.7],[131.0265419,32.902367]]},"properties":{"no":"9301","band":"布田川・日奈久断層帯","fault":"北東部","seg":null,"mjma":7.2,"mw":6.7,"len":32,"width":14,"area":448,"top":3,"strike":45.4,"dip":90,"rake":180,"slip":1,"chained":null}},{"type":"Feature","geometry":{"type":"LineString","coordinates":[[130.793,32.739],[130.4682685,32.3592263]]},"properties":{"no":"9302","band":"布田川・日奈久断層帯","fault":"中部","seg":null,"mjma":7.6,"mw":7,"len":52,"width":16,"area":832,"top":3,"strike":216,"dip":60,"rake":-160,"slip":1.7,"chained":null}},{"type":"Feature","geometry":{"type":"LineString","coordinates":[[130.793,32.739],[130.4682685,32.3592263]]},"properties":{"no":"9302","band":"布田川・日奈久断層帯","fault":"中部南西部同時活動","seg":"中部","mjma":7.9,"mw":7.3,"len":52,"width":16,"area":832,"top":3,"strike":216,"dip":60,"rake":-160,"slip":2.5,"chained":null}},{"type":"Feature","geometry":{"type":"LineString","coordinates":[[130.473,32.363],[130.1912987,32.201737]]},"properties":{"no":"9302","band":"布田川・日奈久断層帯","fault":"中部南西部同時活動","seg":"南西部","mjma":null,"mw":null,"len":32,"width":16,"area":512,"top":3,"strike":236.1,"dip":60,"rake":-160,"slip":null,"chained":null}},{"type":"Feature","geometry":{"type":"LineString","coordinates":[[130.473,32.363],[130.1912987,32.201737]]},"properties":{"no":"9302","band":"布田川・日奈久断層帯","fault":"南西部","seg":null,"mjma":7.2,"mw":6.7,"len":32,"width":16,"area":512,"top":3,"strike":236.1,"dip":60,"rake":-160,"slip":0.9,"chained":null}},{"type":"Feature","geometry":{"type":"LineString","coordinates":[[130.853,33.334],[130.5316194,33.3147159]]},"properties":{"no":"9401","band":"水縄断層帯","fault":null,"seg":null,"mjma":7.2,"mw":6.7,"len":30,"width":14,"area":420,"top":3,"strike":266,"dip":60,"rake":-90,"slip":1,"chained":null}},{"type":"Feature","geometry":{"type":"LineString","coordinates":[[130.057,32.734],[130.3977176,32.7526602]]},"properties":{"no":"9501","band":"雲仙断層群","fault":"北部","seg":null,"mjma":7.3,"mw":6.8,"len":32,"width":18,"area":576,"top":3,"strike":86.2,"dip":60,"rake":-90,"slip":1,"chained":null}},{"type":"Feature","geometry":{"type":"LineString","coordinates":[[130.519,32.73],[130.2449309,32.7663758]]},"properties":{"no":"9502","band":"雲仙断層群","fault":"南東部","seg":null,"mjma":7.1,"mw":6.6,"len":26,"width":18,"area":468,"top":3,"strike":279,"dip":60,"rake":-90,"slip":0.7,"chained":null}},{"type":"Feature","geometry":{"type":"LineString","coordinates":[[130.298,32.733],[129.9359835,32.7142949]]},"properties":{"no":"9503","band":"雲仙断層群","fault":"南西部北部","seg":null,"mjma":7.3,"mw":6.8,"len":34,"width":18,"area":612,"top":3,"strike":266.6,"dip":60,"rake":-90,"slip":1,"chained":null}},{"type":"Feature","geometry":{"type":"LineString","coordinates":[[129.872,32.598],[130.1406735,32.6552251]]},"properties":{"no":"9504","band":"雲仙断層群","fault":"南西部南部","seg":null,"mjma":7.1,"mw":6.6,"len":26,"width":18,"area":468,"top":3,"strike":75.8,"dip":60,"rake":-90,"slip":0.7,"chained":null}},{"type":"Feature","geometry":{"type":"LineString","coordinates":[[130.42,32.159],[130.2480252,32.0251031]]},"properties":{"no":"9601","band":"出水断層帯","fault":null,"seg":null,"mjma":7,"mw":6.5,"len":22,"width":18,"area":396,"top":3,"strike":227.6,"dip":45,"rake":-160,"slip":0.7,"chained":null}},{"type":"Feature","geometry":{"type":"LineString","coordinates":[[130.296,33.683],[130.0512862,33.8311376]]},"properties":{"no":"10801","band":"警固断層帯","fault":"北西部","seg":null,"mjma":7.1,"mw":6.6,"len":28,"width":16,"area":448,"top":3,"strike":306,"dip":87,"rake":0,"slip":0.8,"chained":null}},{"type":"Feature","geometry":{"type":"LineString","coordinates":[[130.309,33.656],[130.548079,33.4482313]]},"properties":{"no":"10802","band":"警固断層帯","fault":"南東部","seg":null,"mjma":7.2,"mw":6.7,"len":32,"width":16,"area":512,"top":2,"strike":136,"dip":90,"rake":0,"slip":0.9,"chained":null}},{"type":"Feature","geometry":{"type":"LineString","coordinates":[[131.003,32.28],[130.7872195,32.1651256]]},"properties":{"no":"10901","band":"人吉盆地南縁断層","fault":null,"seg":null,"mjma":7.1,"mw":6.6,"len":24,"width":18,"area":432,"top":2,"strike":238,"dip":60,"rake":-90,"slip":0.7,"chained":null}}]}